NORAD_CAT_ID,OBJECT_NAME,OBJECT_TYPE,EPOCH,MEAN_MOTION,ECCENTRICITY,INCLINATION,RA_OF_ASC_NODE,ARG_OF_PERICENTER,MEAN_ANOMALY,BSTAR,MEAN_MOTION_DOT,MEAN_MOTION_DDOT,TLE_LINE0,TLE_LINE1,TLE_LINE2,SEMIMAJOR_AXIS,PERIOD,APOGEE,PERIGEE,DECAYED
54000.0,STARLINK-5088,PAYLOAD,2023-11-07 01:50:20,15.08801744,0.0001453,53.2167,76.3276,63.1579,296.9561,-0.00055539,-9.107e-05,0.0,0 STARLINK-5088,1 54000U 22125AN  23311.07662424 -.00009107  00000-0 -55539-3 0  9991,2 54000  53.2167  76.3276 0001453  63.1579 296.9561 15.08801744 60800,6917.997,95.44,540.868,538.857,0.0
54000.0,STARLINK-5088,PAYLOAD,2023-11-07 14:33:25,15.08819044,0.0001401,53.2176,73.9465,77.4276,282.6873,-7.9395e-05,-1.551e-05,0.0,0 STARLINK-5088,1 54000U 22125AN  23311.60654461 -.00001551  00000-0 -79395-4 0  9994,2 54000  53.2176  73.9465 0001401  77.4276 282.6873 15.08819044 60819,6917.944,95.439,540.779,538.84,0.0
54000.0,STARLINK-5088,PAYLOAD,2023-11-08 01:41:07,15.08832481,0.0001381,53.2185,71.8675,66.3121,293.8016,0.00038801,5.891e-05,0.0,0 STARLINK-5088,1 54000U 22125AN  23312.07022762  .00005891  00000-0  38801-3 0  9994,2 54000  53.2185  71.8675 0001381  66.3121 293.8016 15.08832481 60950,6917.903,95.438,540.724,538.813,0.0
54000.0,STARLINK-5088,PAYLOAD,2023-11-08 14:24:12,15.08857851,0.0001613,53.2182,69.4878,40.9408,319.1705,0.00091167,0.00014258,0.0,0 STARLINK-5088,1 54000U 22125AN  23312.60014025  .00014258  00000-0  91167-3 0  9997,2 54000  53.2182  69.4878 0001613  40.9408 319.1705 15.08857851 60965,6917.826,95.436,540.807,538.575,0.0
54000.0,STARLINK-5088,PAYLOAD,2023-11-09 01:31:53,15.08856558,0.0001135,53.2175,67.4092,51.288,308.8213,0.00063226,9.793e-05,0.0,0 STARLINK-5088,1 54000U 22125AN  23313.06381647  .00009793  00000-0  63226-3 0  9998,2 54000  53.2175  67.4092 0001135  51.2880 308.8213 15.08856558 61100,6917.83,95.437,540.48,538.91,0.0
54000.0,STARLINK-5088,PAYLOAD,2023-11-09 12:39:35,15.08849296,0.0001339,53.2182,65.3247,82.0911,278.0233,0.00028754,4.292e-05,0.0,0 STARLINK-5088,1 54000U 22125AN  23313.52749666  .00004292  00000-0  28754-3 0  9994,2 54000  53.2182  65.3247 0001339  82.0911 278.0233 15.08849296 61178,6917.852,95.437,540.643,538.791,0.0
54000.0,STARLINK-5088,PAYLOAD,2023-11-09 14:14:58,15.08854111,0.0001408,53.219,65.0285,76.7681,283.3468,0.00015634,2.202e-05,0.0,0 STARLINK-5088,1 54000U 22125AN  23313.59373413  .00002202  00000-0  15634-3 0  9996,2 54000  53.2190  65.0285 0001408  76.7681 283.3468 15.08854111 61112,6917.837,95.437,540.676,538.728,0.0
54000.0,STARLINK-5088,PAYLOAD,2023-11-10 12:30:22,15.08848882,0.0001533,53.2178,60.8646,60.372,299.7425,-4.913e-05,-1.07e-05,0.0,0 STARLINK-5088,1 54000U 22125AN  23314.52109276 -.00001070  00000-0 -49130-4 0  9997,2 54000  53.2178  60.8646 0001533  60.3720 299.7425 15.08848882 61329,6917.853,95.437,540.779,538.658,0.0
54000.0,STARLINK-5088,PAYLOAD,2023-11-10 14:05:45,15.08852604,0.0001394,53.2176,60.5662,70.3161,289.7981,-0.00010286,-1.925e-05,0.0,0 STARLINK-5088,1 54000U 22125AN  23314.58732874 -.00001925  00000-0 -10286-3 0  9997,2 54000  53.2176  60.5662 0001394  70.3161 289.7981 15.08852604 61263,6917.842,95.437,540.671,538.743,0.0
54000.0,STARLINK-5088,PAYLOAD,2023-11-11 13:56:32,15.08847705,0.0001423,53.2172,56.1075,85.1843,274.9312,0.00015607,2.197e-05,0.0,0 STARLINK-5088,1 54000U 22125AN  23315.58093191  .00002197  00000-0  15607-3 0  9992,2 54000  53.2172  56.1075 0001423  85.1843 274.9312 15.08847705 61419,6917.857,95.437,540.706,538.737,0.0
54000.0,STARLINK-5088,PAYLOAD,2023-11-11 23:28:54,15.08789246,0.0001881,53.2179,54.3217,80.7663,279.3542,-0.00059682,-9.761e-05,0.0,0 STARLINK-5088,1 54000U 22125AN  23315.97840689 -.00009761  00000-0 -59682-3 0  9994,2 54000  53.2179  54.3217 0001881  80.7663 279.3542 15.08789246 61546,6918.036,95.441,541.202,538.599,0.0
54000.0,STARLINK-5088,PAYLOAD,2023-11-12 10:36:35,15.08827302,0.000137,53.2173,52.2417,81.4568,278.6579,9.4634e-07,-2.73e-06,0.0,0 STARLINK-5088,1 54000U 22125AN  23316.44207263 -.00000273  00000-0  94634-6 0  9999,2 54000  53.2173  52.2417 0001370  81.4568 278.6579 15.08827302 61610,6917.919,95.438,540.732,538.836,0.0
54000.0,STARLINK-5088,PAYLOAD,2023-11-12 13:47:21,15.0883411,0.0001291,53.2179,51.6474,83.3269,276.787,8.2439e-05,1.024e-05,0.0,0 STARLINK-5088,1 54000U 22125AN  23316.57455145  .00001024  00000-0  82439-4 0  9999,2 54000  53.2179  51.6474 0001291  83.3269 276.7870 15.08834110 61565,6917.898,95.438,540.656,538.87,0.0
54000.0,STARLINK-5088,PAYLOAD,2023-11-12 15:22:44,15.08837238,0.0001368,53.2184,51.3493,81.3711,278.7436,0.00010625,1.403e-05,0.0,0 STARLINK-5088,1 54000U 22125AN  23316.64078952  .00001403  00000-0  10625-3 0  9992,2 54000  53.2184  51.3493 0001368  81.3711 278.7436 15.08837238 61647,6917.889,95.438,540.7,538.807,0.0
54000.0,STARLINK-5088,PAYLOAD,2023-11-12 23:19:39,15.08847644,0.0001501,53.2195,49.8645,88.2796,271.8369,0.00022257,3.257e-05,0.0,0 STARLINK-5088,1 54000U 22125AN  23316.97198173  .00003257  00000-0  22257-3 0  9999,2 54000  53.2195  49.8645 0001501  88.2796 271.8369 15.08847644 61694,6917.857,95.437,540.76,538.684,0.0
54000.0,STARLINK-5088,PAYLOAD,2023-11-13 12:02:43,15.08873382,0.000139,53.2176,47.4839,88.0358,272.0794,0.0008234,0.00012853,0.0,0 STARLINK-5088,1 54000U 22125AN  23317.50189478  .00012853  00000-0  82340-3 0  9998,2 54000  53.2176  47.4839 0001390  88.0358 272.0794 15.08873382 61772,6917.778,95.435,540.605,538.682,0.0
54000.0,STARLINK-5088,PAYLOAD,2023-11-14 11:53:30,15.08847232,0.0001418,53.2179,43.0225,100.3894,259.7258,-0.00016656,-2.938e-05,0.0,0 STARLINK-5088,1 54000U 22125AN  23318.49549532 -.00002938  00000-0 -16656-3 0  9990,2 54000  53.2179  43.0225 0001418 100.3894 259.7258 15.08847232 61929,6917.858,95.437,540.704,538.742,0.0
54000.0,STARLINK-5088,PAYLOAD,2023-11-14 13:28:53,15.08844812,0.0001411,53.218,42.7255,101.0428,259.0723,-0.00021283,-3.674e-05,0.0,0 STARLINK-5088,1 54000U 22125AN  23318.56173537 -.00003674  00000-0 -21283-3 0  9996,2 54000  53.2180  42.7255 0001411 101.0428 259.0723 15.08844812 61868,6917.866,95.437,540.707,538.755,0.0
54000.0,STARLINK-5088,PAYLOAD,2023-11-15 11:44:17,15.08859756,0.0001415,53.2175,38.5644,108.8152,251.2994,-0.00030458,-5.135e-05,0.0,0 STARLINK-5088,1 54000U 22125AN  23319.48908992 -.00005135  00000-0 -30458-3 0  9997,2 54000  53.2175  38.5644 0001415 108.8152 251.2994 15.08859756 62004,6917.82,95.436,540.664,538.706,0.0
54000.0,STARLINK-5088,PAYLOAD,2023-11-16 08:24:19,15.08836047,0.0001449,53.2179,34.6998,89.5744,270.5414,0.00018954,2.73e-05,0.0,0 STARLINK-5088,1 54000U 22125AN  23320.35022345  .00002730  00000-0  18954-3 0  9997,2 54000  53.2179  34.6998 0001449  89.5744 270.5414 15.08836047 62207,6917.892,95.438,540.76,538.755,0.0
54000.0,STARLINK-5088,PAYLOAD,2023-11-16 14:45:51,15.08839211,0.0001505,53.2178,33.5097,94.579,265.5374,0.00019885,2.878e-05,0.0,0 STARLINK-5088,1 54000U 22125AN  23320.61518218  .00002878  00000-0  19885-3 0  9992,2 54000  53.2178  33.5097 0001505  94.5790 265.5374 15.08839211 62175,6917.883,95.438,540.789,538.707,0.0
54000.0,STARLINK-5088,PAYLOAD,2023-11-17 11:25:51,15.08845854,0.0001384,53.217,29.6409,100.1206,259.9942,0.00013787,1.907e-05,0.0,0 STARLINK-5088,1 54000U 22125AN  23321.47629596  .00001907  00000-0  13787-3 0  9996,2 54000  53.2170  29.6409 0001384 100.1206 259.9942 15.08845854 62371,6917.862,95.437,540.685,538.77,0.0
54000.0,STARLINK-5088,PAYLOAD,2023-11-18 11:16:39,15.08844244,0.0001236,53.2183,25.1839,92.3153,267.798,7.2974e-05,8.74e-06,0.0,0 STARLINK-5088,1 54000U 22125AN  23322.46989851  .00000874  00000-0  72974-4 0  9995,2 54000  53.2183  25.1839 0001236  92.3153 267.7980 15.08844244 62520,6917.867,95.437,540.587,538.877,0.0
54000.0,STARLINK-5088,PAYLOAD,2023-11-18 20:48:58,15.08838398,0.0001174,53.2175,23.3972,93.0058,267.1069,5.6404e-05,6.1e-06,0.0,0 STARLINK-5088,1 54000U 22125AN  23322.86734128  .00000610  00000-0  56404-4 0  9992,2 54000  53.2175  23.3972 0001174  93.0058 267.1069 15.08838398 62516,6917.885,95.438,540.562,538.938,0.0
54000.0,STARLINK-5088,PAYLOAD,2023-11-19 03:10:31,15.08835752,0.0001187,53.2182,22.2086,84.7619,275.3509,4.5922e-05,4.43e-06,0.0,0 STARLINK-5088,1 54000U 22125AN  23323.13230426  .00000443  00000-0  45922-4 0  9992,2 54000  53.2182  22.2086 0001187  84.7619 275.3509 15.08835752 62625,6917.893,95.438,540.58,538.937,0.0
54000.0,STARLINK-5088,PAYLOAD,2023-11-19 11:07:26,15.08843991,0.0001179,53.2185,20.7234,89.0495,271.0632,7.2688e-05,8.69e-06,0.0,0 STARLINK-5088,1 54000U 22125AN  23323.46349878  .00000869  00000-0  72688-4 0  9991,2 54000  53.2185  20.7234 0001179  89.0495 271.0632 15.08843991 62676,6917.868,95.437,540.549,538.918,0.0
54000.0,STARLINK-5088,PAYLOAD,2023-11-20 12:33:36,15.08843298,0.0001258,53.2179,15.9654,94.3263,265.7873,0.0001297,1.777e-05,0.0,0 STARLINK-5088,1 54000U 22125AN  23324.52333821  .00001777  00000-0  12970-3 0  9996,2 54000  53.2179  15.9654 0001258  94.3263 265.7873 15.08843298 62768,6917.87,95.437,540.606,538.865,0.0
54000.0,STARLINK-5088,PAYLOAD,2023-11-21 12:24:23,15.08849479,0.0001246,53.2181,11.5041,77.0765,283.0366,0.00012378,1.683e-05,0.0,0 STARLINK-5088,1 54000U 22125AN  23325.51693568  .00001683  00000-0  12378-3 0  9991,2 54000  53.2181  11.5041 0001246  77.0765 283.0366 15.08849479 62919,6917.851,95.437,540.578,538.854,0.0
54000.0,STARLINK-5088,PAYLOAD,2023-11-22 10:39:47,15.08852048,0.0001534,53.2191,7.3431,61.8773,298.2374,0.00026313,3.904e-05,0.0,0 STARLINK-5088,1 54000U 22125AN  23326.44429410  .00003904  00000-0  26313-3 0  9999,2 54000  53.2191   7.3431 0001534  61.8773 298.2374 15.08852048 63123,6917.844,95.437,540.77,538.647,0.0
54000.0,STARLINK-5088,PAYLOAD,2023-11-22 23:22:52,15.08841808,0.0001495,53.2179,4.9644,81.3441,278.7721,9.9475e-05,1.296e-05,0.0,0 STARLINK-5088,1 54000U 22125AN  23326.97421939  .00001296  00000-0  99475-4 0  9997,2 54000  53.2179   4.9644 0001495  81.3441 278.7721 15.08841808 63203,6917.875,95.437,540.774,538.706,0.0
